IRIDIUM 106             
1 41917U 17003A   25201.48571946  .00000045  00000+0  88989-5 0  9992
2 41917  86.3952 227.0868 0001810  93.7801 266.3601 14.34217754445665
IRIDIUM 103             
1 41918U 17003B   25200.49627594  .00000043  00000+0  83161-5 0  9999
2 41918  86.3952 227.4013 0002351  76.4450 283.7007 14.34217841445548
IRIDIUM 109             
1 41919U 17003C   25200.78169287  .00000082  00000+0  22329-4 0  9993
2 41919  86.3953 227.3359 0002443  88.5784 271.5692 14.34218018445551
IRIDIUM 102             
1 41920U 17003D   25200.81974823  .00000073  00000+0  18836-4 0  9997
2 41920  86.3952 227.2507 0002417  92.6259 267.5213 14.34218077445649
IRIDIUM 105             
1 41921U 17003E   25200.51140935  .00000129  00000+0  39136-4 0  9992
2 41921  86.3989 195.8572 0002325  83.8053 276.3407 14.34218292447457
IRIDIUM 104             
1 41922U 17003F   25200.83243402  .00000058  00000+0  13551-4 0  9995
2 41922  86.3952 227.2829 0002622  84.3303 275.8191 14.34217926445632
IRIDIUM 114             
1 41923U 17003G   25201.46669252  .00000085  00000+0  23292-4 0  9994
2 41923  86.3952 227.0021 0002230  84.5207 275.6243 14.34218058445728
IRIDIUM 108             
1 41924U 17003H   25200.72752779  .00000056  00000+0  13036-4 0  9993
2 41924  86.3984 195.6663 0002195  92.9548 267.1899 14.34218010447450
